[{"OBJECT_NAME":"PROBA-1","OBJECT_ID":"2001-049B","EPOCH":"2026-03-03T20:20:59.434368","MEAN_MOTION":15.06982534,"ECCENTRICITY":0.0057029,"INCLINATION":97.9623,"RA_OF_ASC_NODE":67.7243,"ARG_OF_PERICENTER":118.1635,"MEAN_ANOMALY":242.5369,"EPHEMERIS_TYPE":0,"CLASSIFICATION_TYPE":"U","NORAD_CAT_ID":26958,"ELEMENT_SET_NO":999,"REV_AT_EPOCH":32775,"BSTAR":0.00014294,"MEAN_MOTION_DOT":2.148e-5,"MEAN_MOTION_DDOT":0},{"OBJECT_NAME":"CUTE-1 (CO-55)","OBJECT_ID":"2003-031E","EPOCH":"2026-03-03T14:13:05.995200","MEAN_MOTION":14.2426021,"ECCENTRICITY":0.0010485,"INCLINATION":98.6778,"RA_OF_ASC_NODE":72.4669,"ARG_OF_PERICENTER":128.3914,"MEAN_ANOMALY":231.8208,"EPHEMERIS_TYPE":0,"CLASSIFICATION_TYPE":"U","NORAD_CAT_ID":27844,"ELEMENT_SET_NO":999,"REV_AT_EPOCH":17664,"BSTAR":0.00021825,"MEAN_MOTION_DOT":4.6e-6,"MEAN_MOTION_DDOT":0},{"OBJECT_NAME":"CUBESAT XI-IV (CO-57)","OBJECT_ID":"2003-031J","EPOCH":"2026-03-03T10:59:29.555808","MEAN_MOTION":14.23556086,"ECCENTRICITY":0.00101181,"INCLINATION":98.6808,"RA_OF_ASC_NODE":72.1317,"ARG_OF_PERICENTER":145.3523,"MEAN_ANOMALY":214.8316,"EPHEMERIS_TYPE":0,"CLASSIFICATION_TYPE":"U","NORAD_CAT_ID":27848,"ELEMENT_SET_NO":999,"REV_AT_EPOCH":17633,"BSTAR":0.00018495315,"MEAN_MOTION_DOT":3.77e-6,"MEAN_MOTION_DDOT":0},{"OBJECT_NAME":"APRIZESAT 4","OBJECT_ID":"2009-041D","EPOCH":"2026-03-03T17:17:00.381984","MEAN_MOTION":14.83694957,"ECCENTRICITY":0.0042289,"INCLINATION":98.1498,"RA_OF_ASC_NODE":135.9195,"ARG_OF_PERICENTER":304.6266,"MEAN_ANOMALY":55.0963,"EPHEMERIS_TYPE":0,"CLASSIFICATION_TYPE":"U","NORAD_CAT_ID":35684,"ELEMENT_SET_NO":999,"REV_AT_EPOCH":89572,"BSTAR":0.00014437,"MEAN_MOTION_DOT":1.152e-5,"MEAN_MOTION_DDOT":0},{"OBJECT_NAME":"APRIZESAT 3","OBJECT_ID":"2009-041F","EPOCH":"2026-03-03T08:33:31.487616","MEAN_MOTION":14.95868124,"ECCENTRICITY":0.00632282,"INCLINATION":98.1883,"RA_OF_ASC_NODE":210.6317,"ARG_OF_PERICENTER":57.4098,"MEAN_ANOMALY":303.3204,"EPHEMERIS_TYPE":0,"CLASSIFICATION_TYPE":"U","NORAD_CAT_ID":35686,"ELEMENT_SET_NO":999,"REV_AT_EPOCH":90055,"BSTAR":0.00026517269,"MEAN_MOTION_DOT":3.018e-5,"MEAN_MOTION_DDOT":0},{"OBJECT_NAME":"PROBA-2","OBJECT_ID":"2009-059B","EPOCH":"2026-03-03T17:40:22.044864","MEAN_MOTION":14.5478619,"ECCENTRICITY":0.0012109,"INCLINATION":98.2426,"RA_OF_ASC_NODE":247.5528,"ARG_OF_PERICENTER":244.0488,"MEAN_ANOMALY":115.9462,"EPHEMERIS_TYPE":0,"CLASSIFICATION_TYPE":"U","NORAD_CAT_ID":36037,"ELEMENT_SET_NO":999,"REV_AT_EPOCH":86619,"BSTAR":0.00010788,"MEAN_MOTION_DOT":4.17e-6,"MEAN_MOTION_DDOT":0},{"OBJECT_NAME":"APRIZESAT 5","OBJECT_ID":"2011-044E","EPOCH":"2026-03-03T17:48:25.376832","MEAN_MOTION":14.80834526,"ECCENTRICITY":0.0052173,"INCLINATION":98.2402,"RA_OF_ASC_NODE":352.8506,"ARG_OF_PERICENTER":343.8249,"MEAN_ANOMALY":16.1295,"EPHEMERIS_TYPE":0,"CLASSIFICATION_TYPE":"U","NORAD_CAT_ID":37792,"ELEMENT_SET_NO":999,"REV_AT_EPOCH":78318,"BSTAR":0.00026318,"MEAN_MOTION_DOT":2.019e-5,"MEAN_MOTION_DDOT":0},{"OBJECT_NAME":"APRIZESAT 6","OBJECT_ID":"2011-044F","EPOCH":"2026-03-03T17:19:16.805856","MEAN_MOTION":14.76736881,"ECCENTRICITY":0.0044496,"INCLINATION":98.2423,"RA_OF_ASC_NODE":331.0508,"ARG_OF_PERICENTER":64.095,"MEAN_ANOMALY":350.0567,"EPHEMERIS_TYPE":0,"CLASSIFICATION_TYPE":"U","NORAD_CAT_ID":37793,"ELEMENT_SET_NO":999,"REV_AT_EPOCH":78158,"BSTAR":0.00018576,"MEAN_MOTION_DOT":1.266e-5,"MEAN_MOTION_DDOT":0},{"OBJECT_NAME":"PROBA-V","OBJECT_ID":"2013-021A","EPOCH":"2026-03-03T13:12:51.430464","MEAN_MOTION":14.23571766,"ECCENTRICITY":0.0005386,"INCLINATION":98.3497,"RA_OF_ASC_NODE":46.4236,"ARG_OF_PERICENTER":83.8944,"MEAN_ANOMALY":276.2849,"EPHEMERIS_TYPE":0,"CLASSIFICATION_TYPE":"U","NORAD_CAT_ID":39159,"ELEMENT_SET_NO":999,"REV_AT_EPOCH":66608,"BSTAR":6.4191e-5,"MEAN_MOTION_DOT":1.05e-6,"MEAN_MOTION_DDOT":0},{"OBJECT_NAME":"APRIZESAT 7","OBJECT_ID":"2013-066A","EPOCH":"2026-03-03T19:41:37.180608","MEAN_MOTION":14.91259096,"ECCENTRICITY":0.0035363,"INCLINATION":97.7589,"RA_OF_ASC_NODE":17.6525,"ARG_OF_PERICENTER":198.4086,"MEAN_ANOMALY":161.5855,"EPHEMERIS_TYPE":0,"CLASSIFICATION_TYPE":"U","NORAD_CAT_ID":39416,"ELEMENT_SET_NO":999,"REV_AT_EPOCH":66552,"BSTAR":0.00022564,"MEAN_MOTION_DOT":2.214e-5,"MEAN_MOTION_DDOT":0},{"OBJECT_NAME":"APRIZESAT 8","OBJECT_ID":"2013-066K","EPOCH":"2026-03-03T17:37:52.207392","MEAN_MOTION":14.87402649,"ECCENTRICITY":0.0044605,"INCLINATION":97.811,"RA_OF_ASC_NODE":11.764,"ARG_OF_PERICENTER":273.2472,"MEAN_ANOMALY":86.3642,"EPHEMERIS_TYPE":0,"CLASSIFICATION_TYPE":"U","NORAD_CAT_ID":39425,"ELEMENT_SET_NO":999,"REV_AT_EPOCH":66399,"BSTAR":0.00020925,"MEAN_MOTION_DOT":1.869e-5,"MEAN_MOTION_DDOT":0},{"OBJECT_NAME":"BUGSAT-1 (TITA)","OBJECT_ID":"2014-033E","EPOCH":"2026-03-03T19:46:37.100064","MEAN_MOTION":15.1440458,"ECCENTRICITY":0.00289,"INCLINATION":98.0445,"RA_OF_ASC_NODE":149.3156,"ARG_OF_PERICENTER":177.992,"MEAN_ANOMALY":182.1431,"EPHEMERIS_TYPE":0,"CLASSIFICATION_TYPE":"U","NORAD_CAT_ID":40014,"ELEMENT_SET_NO":999,"REV_AT_EPOCH":63988,"BSTAR":0.00042792,"MEAN_MOTION_DOT":7.866e-5,"MEAN_MOTION_DDOT":0},{"OBJECT_NAME":"SAUDISAT 4","OBJECT_ID":"2014-033G","EPOCH":"2026-03-03T09:47:22.047648","MEAN_MOTION":14.79375613,"ECCENTRICITY":0.0046079,"INCLINATION":97.7399,"RA_OF_ASC_NODE":212.3079,"ARG_OF_PERICENTER":58.7184,"MEAN_ANOMALY":301.8528,"EPHEMERIS_TYPE":0,"CLASSIFICATION_TYPE":"U","NORAD_CAT_ID":40016,"ELEMENT_SET_NO":999,"REV_AT_EPOCH":63043,"BSTAR":0.00015602737,"MEAN_MOTION_DOT":1.132e-5,"MEAN_MOTION_DDOT":0},{"OBJECT_NAME":"APRIZESAT 9","OBJECT_ID":"2014-033J","EPOCH":"2026-03-03T07:40:16.969440","MEAN_MOTION":14.74055785,"ECCENTRICITY":0.00663948,"INCLINATION":97.8869,"RA_OF_ASC_NODE":198.2216,"ARG_OF_PERICENTER":179.5739,"MEAN_ANOMALY":180.5538,"EPHEMERIS_TYPE":0,"CLASSIFICATION_TYPE":"U","NORAD_CAT_ID":40018,"ELEMENT_SET_NO":999,"REV_AT_EPOCH":62796,"BSTAR":0.0002120113,"MEAN_MOTION_DOT":1.393e-5,"MEAN_MOTION_DDOT":0},{"OBJECT_NAME":"APRIZESAT 10","OBJECT_ID":"2014-033K","EPOCH":"2026-03-03T08:09:23.022720","MEAN_MOTION":14.7073793,"ECCENTRICITY":0.00777368,"INCLINATION":97.9468,"RA_OF_ASC_NODE":191.7741,"ARG_OF_PERICENTER":251.4769,"MEAN_ANOMALY":107.798,"EPHEMERIS_TYPE":0,"CLASSIFICATION_TYPE":"U","NORAD_CAT_ID":40019,"ELEMENT_SET_NO":999,"REV_AT_EPOCH":62669,"BSTAR":0.00017162605,"MEAN_MOTION_DOT":1.043e-5,"MEAN_MOTION_DDOT":0},{"OBJECT_NAME":"TECHDEMOSAT-1 (TDS-1)","OBJECT_ID":"2014-037H","EPOCH":"2026-03-03T12:01:18.745824","MEAN_MOTION":15.11402252,"ECCENTRICITY":0.0004668,"INCLINATION":98.3761,"RA_OF_ASC_NODE":44.4246,"ARG_OF_PERICENTER":266.2821,"MEAN_ANOMALY":93.7873,"EPHEMERIS_TYPE":0,"CLASSIFICATION_TYPE":"U","NORAD_CAT_ID":40076,"ELEMENT_SET_NO":999,"REV_AT_EPOCH":63225,"BSTAR":0.00077549967,"MEAN_MOTION_DOT":0.00013039,"MEAN_MOTION_DDOT":0},{"OBJECT_NAME":"TECHNOSAT","OBJECT_ID":"2017-042E","EPOCH":"2026-03-03T12:11:24.330336","MEAN_MOTION":15.04219781,"ECCENTRICITY":0.0019632,"INCLINATION":97.4142,"RA_OF_ASC_NODE":224.3165,"ARG_OF_PERICENTER":95.0585,"MEAN_ANOMALY":265.2883,"EPHEMERIS_TYPE":0,"CLASSIFICATION_TYPE":"U","NORAD_CAT_ID":42829,"ELEMENT_SET_NO":999,"REV_AT_EPOCH":47081,"BSTAR":0.00039639,"MEAN_MOTION_DOT":5.474e-5,"MEAN_MOTION_DDOT":0}]
