PROBA-1                 
1 26958U 01049B   26062.84791012  .00002148  00000+0  14294-3 0  9999
2 26958  97.9623  67.7243 0057029 118.1635 242.5369 15.06982534327753
CUTE-1 (CO-55)          
1 27844U 03031E   26062.59243050  .00000460  00000+0  21825-3 0  9996
2 27844  98.6778  72.4669 0010485 128.3914 231.8208 14.24260210176642
CUBESAT XI-IV (CO-57)   
1 27848U 03031J   26062.45798097  .00000377  00000+0  18495-3 0  9997
2 27848  98.6808  72.1317 0010118 145.3523 214.8316 14.23556086176330
APRIZESAT 4             
1 35684U 09041D   26062.72014331  .00001152  00000+0  14437-3 0  9997
2 35684  98.1498 135.9195 0042289 304.6266  55.0963 14.83694957895727
APRIZESAT 3             
1 35686U 09041F   26062.35661444  .00003018  00000+0  26517-3 0  9996
2 35686  98.1883 210.6317 0063228  57.4098 303.3204 14.95868124900553
PROBA-2                 
1 36037U 09059B   26062.73636626  .00000417  00000+0  10788-3 0  9995
2 36037  98.2426 247.5528 0012109 244.0488 115.9462 14.54786190866191
APRIZESAT 5             
1 37792U 11044E   26062.74196038  .00002019  00000+0  26318-3 0  9996
2 37792  98.2402 352.8506 0052173 343.8249  16.1295 14.80834526783187
APRIZESAT 6             
1 37793U 11044F   26062.72172229  .00001266  00000+0  18576-3 0  9991
2 37793  98.2423 331.0508 0044496  64.0950 350.0567 14.76736881781586
PROBA-V                 
1 39159U 13021A   26062.55059526  .00000105  00000+0  64191-4 0  9997
2 39159  98.3497  46.4236 0005386  83.8944 276.2849 14.23571766666088
APRIZESAT 7             
1 39416U 13066A   26062.82056922  .00002214  00000+0  22564-3 0  9999
2 39416  97.7589  17.6525 0035363 198.4086 161.5855 14.91259096665523
APRIZESAT 8             
1 39425U 13066K   26062.73463203  .00001869  00000+0  20925-3 0  9997
2 39425  97.8110  11.7640 0044605 273.2472  86.3642 14.87402649663993
BUGSAT-1 (TITA)         
1 40014U 14033E   26062.82404051  .00007866  00000+0  42792-3 0  9993
2 40014  98.0445 149.3156 0028900 177.9920 182.1431 15.14404580639880
SAUDISAT 4              
1 40016U 14033G   26062.40789407  .00001132  00000+0  15603-3 0  9991
2 40016  97.7399 212.3079 0046079  58.7184 301.8528 14.79375613630439
APRIZESAT 9             
1 40018U 14033J   26062.31964085  .00001393  00000+0  21201-3 0  9990
2 40018  97.8869 198.2216 0066394 179.5739 180.5538 14.74055785627966
APRIZESAT 10            
1 40019U 14033K   26062.33984980  .00001043  00000+0  17163-3 0  9993
2 40019  97.9468 191.7741 0077736 251.4769 107.7980 14.70737930626695
TECHDEMOSAT-1 (TDS-1)   
1 40076U 14037H   26062.50091141  .00013039  00000+0  77550-3 0  9991
2 40076  98.3761  44.4246 0004668 266.2821  93.7873 15.11402252632256
TECHNOSAT               
1 42829U 17042E   26062.50792049  .00005474  00000+0  39639-3 0  9993
2 42829  97.4142 224.3165 0019632  95.0585 265.2883 15.04219781470812
